C/2009 U3 (Hill),e,51.0705,49.0806,77.9288,179.7231,0.0004091,0.99209630,0.0000,03/19.8217/2010,2000,g 13.0,4.0
# From MPC 75711
P/2009 U4 (McNaught),e,10.0808,55.3681,259.8458,5.077113,0.0861547,0.67496329,239.2553,04/03.0/2017,2000,g 14.0,4.0
# From MPC 82315
C/2009 U5 (Grauer),h,06/24.0412/2010,25.4531,121.0229,24.2467,1.004514,6.122512,2000,7.0,4.0
# From MPC 82315
C/2009 UG89 (Lemmon),h,12/12.4705/2010,130.1049,321.0543,60.5894,1.005206,3.936037,2000,9.0,4.0
# From MPC 72851
C/2009 W2 (Boattini),e,164.5087,199.6313,121.6960,11866,0.0000008,0.99941708,0.0000,05/07.3102/2010,2000,g  7.0,4.0
# From MPC 75711
P/2009 WX51 (Catalina),e,9.6002,31.6632,118.1260,3.076207,0.1826757,0.74087589,118.3358,04/03.0/2017,2000,g 19.0,2.0
# From MPC 82316
C/2009 Y1 (Catalina),e,107.3429,160.3307,127.2154,350.9175,0.0001499,0.99286356,0.0000,01/30.0069/2011,2000,g  9.0,4.0
# From MPC 74247
P/2009 Y2 (Kowalski),e,29.9679,262.0125,172.4290,6.540821,0.0589190,0.63705682,151.2584,04/03.0/2017,2000,g 13.0,4.0
# From MPC 69417
P/2010 A1 (Hill),e,10.3086,47.3202,13.3403,4.387072,0.1072610,0.55402680,299.9480,04/03.0/2017,2000,g 13.0,4.0
# From MPC103843
P/2010 A2 (LINEAR),e,5.2555,320.2252,132.8919,2.290055,0.2844037,0.12446190,41.4404,04/03.0/2017,2000,g 15.5,4.0
# From MPC 75711
P/2010 A3 (Hill),e,14.9862,64.7083,41.4448,6.072412,0.0658661,0.73226362,168.3924,04/03.0/2017,2000,g 14.0,4.0
# From MPC 77403
C/2010 A4 (Siding Spring),e,96.7870,346.7267,271.6250,287.0582,0.0002027,0.99050140,0.0000,10/10.7747/2010,2000,g 12.5,4.0
# From MPC 72851
P/2010 A5 (LINEAR),e,5.7900,277.7195,306.9559,5.090528,0.0858143,0.66528028,217.7625,04/03.0/2017,2000,g 13.0,4.0
# From MPC 80896
C/2010 B1 (Cardinal),h,02/07.9849/2011,101.8500,277.2566,211.6743,1.000160,2.946005,2000,7.5,4.0
# From MPC 75712
P/2010 B2 (WISE),e,8.9385,0.8504,155.9777,3.107005,0.1799663,0.48085775,118.7075,04/03.0/2017,2000,g 17.0,4.0
# From MPC 75008
P/2010 C1 (Scotti),e,9.1391,141.8833,4.0326,7.090082,0.0522068,0.26061564,139.7585,04/03.0/2017,2000,g  9.5,4.0
# From MPC 75712
P/2010 D1 (WISE),e,9.6305,160.8093,226.1611,4.165183,0.1159452,0.35433002,329.8342,04/03.0/2017,2000,g 13.0,4.0
# From MPC 75008
P/2010 D2 (WISE),e,57.1191,319.8141,120.3777,6.712476,0.0566735,0.45107009,146.7740,04/03.0/2017,2000,g 16.0,4.0
# From MPC 84315
C/2010 D3 (WISE),e,76.3321,255.1022,304.5902,8034442,0.0000000,0.99999947,0.0000,09/03.8900/2010,2000,g  9.0,4.0
# From MPC 76025
C/2010 D4 (WISE),e,105.7489,266.7597,44.3352,62.12348,0.0020129,0.88492563,5.8983,04/03.0/2017,2000,g  6.5,4.0
# From MPC 74248
C/2010 DG56 (WISE),e,160.4064,4.1756,318.4552,67.88703,0.0017621,0.97673140,0.0000,05/17.0373/2010,2000,g 16.0,4.0
# From MPC 70361
C/2010 E1 (Garradd),e,71.6011,169.1505,297.2017,112.7824,0.0008229,0.97622584,0.0000,11/05.3478/2009,2000,g 11.5,4.0
# From MPC 75009
P/2010 E2 (Jarnac),e,15.4713,177.8069,8.2806,8.621741,0.0389324,0.72268337,99.2536,04/03.0/2017,2000,g 14.0,4.0
# From MPC 70361
C/2010 E5 (Scotti),e,18.9092,16.9029,148.0497,24.97277,0.0078978,0.84395540,21.2379,04/03.0/2017,2000,g 10.5,4.0
# From MPC 72132
C/2010 F1 (Boattini),e,64.8529,344.2918,127.7666,69.66205,0.0016952,0.94816584,4.5813,04/03.0/2017,2000,g  9.5,4.0
# From MPC 82316
C/2010 F3 (Scotti),e,4.6499,157.3127,31.4090,64.30579,0.0019113,0.91518789,4.6487,04/03.0/2017,2000,g  8.5,4.0
# From MPC 82316
C/2010 FB87 (WISE-Garradd),e,107.8137,89.9993,265.0747,223.9807,0.0002940,0.98726155,0.0000,11/04.8327/2010,2000,g 10.0,4.0
# From MPC 70816
C/2010 G1 (Boattini),e,78.2480,287.5287,168.8287,542.5017,0.0000780,0.99775782,0.0000,04/02.0967/2010,2000,g 12.5,4.0
# From MPC 83142
C/2010 G2 (Hill),e,103.7602,247.0007,137.4579,93.84275,0.0010842,0.97889315,0.0000,09/02.0115/2011,2000,g  8.0,4.0
# From MPC 75292
C/2010 G3 (WISE),e,108.2759,313.7687,75.1828,971.3979,0.0000326,0.99493730,0.0000,04/06.7707/2010,2000,g  8.5,4.0
# From MPC 82316
C/2010 H1 (Garradd),e,36.5913,347.3521,233.7329,2811,0.0000066,0.99902664,0.0000,06/20.9898/2010,2000,g 13.0,4.0
# From MPC 72851
P/2010 H2 (Vales),e,14.2618,64.2849,129.5868,3.843583,0.1307976,0.19440419,338.2538,04/03.0/2017,2000,g  6.0,4.0
# From MPC 70361
P/2010 H3 (SOHO),e,23.8567,78.2957,24.8959,3.068497,0.1833646,0.98465220,0.0000,09/25.7833/2015,2000,g 20.0,2.0
# From MPC 73463
P/2010 H4 (Scotti),e,2.3228,44.7568,179.3283,6.581198,0.0583777,0.26910170,144.7513,04/03.0/2017,2000,g 10.5,4.0
# From MPC 74637
P/2010 H5 (Scotti),e,14.0879,24.7957,174.9483,7.138032,0.0516816,0.15653043,131.4743,04/03.0/2017,2000,g 13.0,2.0
# From MPC 71278
C/2010 J1 (Boattini),e,134.4797,254.6229,332.8142,35.97093,0.0045685,0.95293107,11.9554,04/03.0/2017,2000,g 12.0,4.0
# From MPC 75712
C/2010 J2 (McNaught),e,125.8833,311.8202,4.4085,1413,0.0000186,0.99761101,0.0000,06/01.6279/2010,2000,g  9.0,4.0
# From MPC 82316
P/2010 J3 (McMillan),e,13.2666,106.4989,157.3915,8.957832,0.0367620,0.72723524,88.7006,04/03.0/2017,2000,g 11.0,4.0
# From MPC 84315
P/2010 JC81 (WISE),e,38.6012,30.8337,12.5962,8.128601,0.0425285,0.77593397,92.3899,04/03.0/2017,2000,g  9.0,4.0
# From MPC 74248
C/2010 KW7 (WISE),e,147.0643,105.0183,332.7010,98.29728,0.0010113,0.97373548,0.0000,10/11.8291/2010,2000,g 15.0,2.0
# From MPC 83518
C/2010 L3 (Catalina),h,11/10.1426/2010,102.4976,38.2798,121.8422,1.000842,9.894128,2000,4.5,4.0
# From MPC 74248
C/2010 L4 (WISE),e,102.8097,125.4900,95.6310,79.91351,0.0013797,0.96483592,3.5778,04/03.0/2017,2000,g 11.5,4.0
# From MPC 74248
C/2010 L5 (WISE),e,146.8552,206.3658,214.3277,8.025109,0.0433538,0.90270480,110.0683,04/03.0/2017,2000,g 18.0,4.0
# From MPC 73463
P/2010 P4 (WISE),e,24.0790,2.2326,354.1618,3.704769,0.1382173,0.49775006,341.0240,04/03.0/2017,2000,g 19.5,6.0
# From MPC 88325
C/2010 R1 (LINEAR),e,156.9284,343.6831,114.5674,6596,0.0000018,0.99914564,0.0000,05/16.6530/2012,2000,g  6.0,4.0
# From MPC 95208
C/2010 S1 (LINEAR),h,05/19.0504/2013,125.3170,93.4330,118.5080,1.001760,5.894748,2000,3.5,4.0
# From MPC 74248
P/2010 T2 (PANSTARRS),e,8.0345,59.5647,355.6755,5.487644,0.0766700,0.31655840,160.9968,04/03.0/2017,2000,g 11.5,4.0
# From MPC 81468
P/2010 TO20 (LINEAR-Grauer),e,2.4820,43.2799,270.4440,5.809140,0.0703941,0.05306933,211.7558,04/03.0/2017,2000,g  9.0,4.0
# From MPC 82316
P/2010 U1 (Boattini),e,8.2149,280.7312,86.2505,6.518156,0.0592266,0.24674182,155.2335,04/03.0/2017,2000,g  9.5,4.0
# From MPC 74249
P/2010 U2 (Hill),e,16.8284,357.0884,44.3818,4.282908,0.1111977,0.40042108,260.3974,04/03.0/2017,2000,g 13.0,4.0
# From MPC103843
C/2010 U3 (Boattini),h,02/25.9900/2019,55.5115,43.0719,88.0609,1.001155,8.445898,2000,1.0,4.0
# From MPC 79021
P/2010 UH55 (Spacewatch),e,8.4191,234.6200,223.4935,6.605747,0.0580525,0.57325042,124.5942,04/03.0/2017,2000,g 11.0,4.0
# From MPC 75009
P/2010 WK (LINEAR),e,11.4150,11.3968,41.1443,5.752455,0.0714372,0.68953795,168.8050,04/03.0/2017,2000,g 14.5,2.0
# From MPC 76025
C/2010 X1 (Elenin),e,1.8726,322.1531,344.4612,461.7295,0.0000993,0.99897731,0.0000,09/09.5996/2011,2000,g 10.0,4.0
# From MPC 82317
P/2011 A2 (Scotti),e,4.4757,54.6722,94.6188,3.104231,0.1802075,0.49984323,52.8060,04/03.0/2017,2000,g 16.5,4.0
# From MPC 85831
C/2011 A3 (Gibbs),e,26.0815,124.8011,141.0423,760.9914,0.0000469,0.99693556,0.0000,12/17.0837/2011,2000,g 10.0,4.0
# From MPC 82317
C/2011 C1 (McNaught),e,16.3116,191.2611,85.6523,494.8148,0.0000895,0.99822097,0.0000,04/18.1496/2011,2000,g 15.5,4.0
# From MPC 84021
P/2011 C2 (Gibbs),e,10.8909,12.0905,161.0418,7.404169,0.0489204,0.27118163,93.3335,04/03.0/2017,2000,g  9.0,4.0
# From MPC 75516
C/2011 C3 (Gibbs),e,49.5379,20.8280,206.7648,299.3642,0.0001903,0.99495224,0.0000,04/09.0503/2011,2000,g 17.0,4.0
# From MPC 86639
P/2011 CR42 (Catalina),e,8.4642,58.7291,173.2661,3.505889,0.1501436,0.28091602,293.0095,04/03.0/2017,2000,g 13.0,2.0
# From MPC 89309
C/2011 F1 (LINEAR),e,56.7057,85.0270,192.4846,2256,0.0000092,0.99919569,0.0000,01/08.1972/2013,2000,g  5.0,4.0
# From MPC 79866
P/2011 FR143 (Lemmon),e,16.0203,190.9172,350.1010,6.841487,0.0550780,0.45381354,121.9269,04/03.0/2017,2000,g 14.0,2.0
# From MPC 80044
C/2011 G1 (McNaught),h,09/16.4812/2011,162.2264,153.0324,355.1200,1.001063,2.164665,2000,12.0,4.0
# From MPC103843
C/2011 J2 (LINEAR),h,12/25.8742/2013,122.7922,163.9412,85.3122,1.001692,3.441760,2000,5.5,3.6
# From MPEC 2015-K84
C/2011 J2-B (LINEAR),h,12/25.7515/2013,122.7948,163.9377,85.2697,1.002453,3.440962,2000,9.0,3.6
# From unp
C/2011 J2-C (LINEAR),h,12/25.8440/2013,122.7902,163.9429,85.2868,1.002489,3.440799,2000,11.0,3.6
# From MPC 75713
C/2011 J3 (LINEAR),e,114.4179,21.5771,27.8178,19.57837,0.0113773,0.92603312,25.7371,04/03.0/2017,2000,g 15.0,4.0
# From MPC 82317
P/2011 JB15 (Spacewatch-Boattini),e,19.1536,153.7224,110.5656,7.343355,0.0495293,0.31838087,94.1202,04/03.0/2017,2000,g  9.0,4.0
# From MPC 75516
C/2011 K1 (Schwartz-Holvorcem),e,122.6192,70.5958,166.8944,3377,0.0000050,0.99900044,0.0000,04/19.7494/2011,2000,g 12.0,4.0
# From MPC103843
C/2011 KP36 (Spacewatch),e,18.9861,173.3995,180.5728,38.41240,0.0041400,0.87288066,1.2888,04/03.0/2017,2000,g  4.5,4.0
# From MPC 83518
C/2011 L1 (McNaught),e,65.4861,252.1766,294.4599,11.03194,0.0268984,0.79717589,61.7876,04/03.0/2017,2000,g 11.0,4.0
# From MPC 78588
C/2011 L2 (McNaught),e,104.3641,131.4134,257.0273,5097,0.0000027,0.99961741,0.0000,10/29.7423/2011,2000,g 12.5,4.0
# From MPC 77405
C/2011 L3 (McNaught),e,87.2158,307.7350,27.6134,917.2964,0.0000355,0.99790330,0.0000,08/08.2695/2011,2000,g 12.5,4.0
# From MPC103843
C/2011 L4 (PANSTARRS),e,83.9413,65.9499,333.6479,13148,0.0000007,0.99997701,0.0000,03/09.6996/2013,2000,g  5.5,4.0
# From MPC 82718
C/2011 L6 (Boattini),e,171.4421,214.4199,331.3852,7010,0.0000017,0.99903102,0.0000,01/17.5025/2011,2000,g  9.0,4.0
# From MPC 75714
C/2011 M1 (LINEAR),h,09/06.0891/2011,70.1558,324.8014,119.7861,1.002456,0.906921,2000,12.0,4.0
# From MPC 87913
P/2011 N1 (ASH),e,35.6932,77.6301,330.5778,6.257711,0.0629623,0.54357788,111.6109,04/03.0/2017,2000,g 11.5,4.0
# From MPC 75714
